GLOBALSTAR M023         
1 25621U 99004A   24135.91581057 -.00000048  00000+0  31144-3 0  9997
2 25621  52.0089 186.1455 0009988 327.6356 204.1912 12.62453401165423
GLOBALSTAR M040         
1 25622U 99004B   24135.89506821 -.00000041  00000+0  34859-3 0  9990
2 25622  51.9902 189.7756 0000741 223.3497 309.5483 12.61974102164961
GLOBALSTAR M036         
1 25623U 99004C   24135.95981374 -.00000078  00000+0  66756-4 0  9990
2 25623  51.9956 209.9323 0010931   7.2135 164.1201 11.86565744131709
GLOBALSTAR M038         
1 25624U 99004D   24135.77328378 -.00000054  00000+0  33759-3 0  9990
2 25624  51.9944 138.9297 0001908 305.7265 225.4350 12.32499523153244
GLOBALSTAR M022         
1 25649U 99012A   24135.73876500 -.00000009  00000+0  94084-3 0  9995
2 25649  52.0045 294.0493 0003291 102.6769 270.3071 12.02482251128447
GLOBALSTAR M037         
1 25652U 99012D   24135.76270686 -.00000021  00000+0  45960-3 0  9998
2 25652  52.0011 317.3796 0002270  47.2687 325.3195 12.62405529160957
